start=new Date('2021-11-01T00:00:00.000Z').valueOf();
sats=[{"MEAN_MOTION_DOT":"0.00000055","MEAN_ANOMALY":"286.6456","EPOCH":"2021-10-31T18:47:58.358976","MEAN_MOTION_DDOT":"0.0000000000000","GP_ID":"188606144","NORAD_CAT_ID":"46718","TLE_LINE2":"2 46718  53.0552 193.9980 0002002  73.4753 286.6456 15.06400895 57287","ARG_OF_PERICENTER":"73.4753","ECCENTRICITY":"0.00020020","RA_OF_ASC_NODE":"193.9980","CLASSIFICATION_TYPE":"U","COUNTRY_CODE":"US","EPHEMERIS_TYPE":"0","APOAPSIS":"548.597","REV_AT_EPOCH":"5728","SITE":"AFETR","MEAN_ELEMENT_THEORY":"SGP4","OBJECT_TYPE":"PAYLOAD","OBJECT_ID":"2020-073BA","PERIOD":"95.592","INCLINATION":"53.0552","RCS_SIZE":"LARGE","SEMIMAJOR_AXIS":"6925.346","BSTAR":"0.00002260200000","DECAY_DATE":null,"PERIAPSIS":"545.824","LAUNCH_DATE":"2020-10-18","TLE_LINE1":"1 46718U 20073BA  21304.78331434  .00000055  00000-0  22602-4 0  9997","REF_FRAME":"TEME","MEAN_MOTION":"15.06400895","FILE":"3194950","CENTER_NAME":"EARTH","ELEMENT_SET_NO":"999","OBJECT_NAME":"STARLINK-1821","TIME_SYSTEM":"UTC"},{"BSTAR":"0.00002897000000","DECAY_DATE":null,"PERIAPSIS":"546.011","OBJECT_ID":"2020-073BB","PERIOD":"95.593","INCLINATION":"53.0552","RCS_SIZE":"LARGE","SEMIMAJOR_AXIS":"6925.371","MEAN_MOTION":"15.06392732","FILE":"3194950","ELEMENT_SET_NO":"999","CENTER_NAME":"EARTH","OBJECT_NAME":"STARLINK-1822","TIME_SYSTEM":"UTC","LAUNCH_DATE":"2020-10-18","TLE_LINE1":"1 46719U 20073BB  21304.89897334  .00000150  00000-0  28970-4 0  9996","REF_FRAME":"TEME","TLE_LINE2":"2 46719  53.0552 158.4623 0001769 152.7946 207.3136 15.06392732 57793","ARG_OF_PERICENTER":"152.7946","ECCENTRICITY":"0.00017690","RA_OF_ASC_NODE":"158.4623","MEAN_MOTION_DOT":"0.00000150","MEAN_ANOMALY":"207.3136","MEAN_MOTION_DDOT":"0.0000000000000","EPOCH":"2021-10-31T21:34:31.296576","GP_ID":"188606896","NORAD_CAT_ID":"46719","REV_AT_EPOCH":"5779","SITE":"AFETR","MEAN_ELEMENT_THEORY":"SGP4","OBJECT_TYPE":"PAYLOAD","CLASSIFICATION_TYPE":"U","COUNTRY_CODE":"US","EPHEMERIS_TYPE":"0","APOAPSIS":"548.461"},{"CENTER_NAME":"EARTH","ELEMENT_SET_NO":"999","TIME_SYSTEM":"UTC","OBJECT_NAME":"STARLINK-1823","MEAN_MOTION":"15.42570251","FILE":"3194950","TLE_LINE1":"1 46720U 20073BC  21304.84879014  .00042003  00000-0  95607-3 0  9991","REF_FRAME":"TEME","LAUNCH_DATE":"2020-10-18","PERIAPSIS":"436.695","DECAY_DATE":null,"BSTAR":"0.00095607000000","RCS_SIZE":"LARGE","INCLINATION":"53.0540","SEMIMAJOR_AXIS":"6816.664","PERIOD":"93.351","OBJECT_ID":"2020-073BC","MEAN_ELEMENT_THEORY":"SGP4","SITE":"AFETR","OBJECT_TYPE":"PAYLOAD","REV_AT_EPOCH":"5795","EPHEMERIS_TYPE":"0","COUNTRY_CODE":"US","APOAPSIS":"440.362","CLASSIFICATION_TYPE":"U","ECCENTRICITY":"0.00026900","RA_OF_ASC_NODE":"146.5685","ARG_OF_PERICENTER":"52.3421","TLE_LINE2":"2 46720  53.0540 146.5685 0002690  52.3421 307.7827 15.42570251 57959","GP_ID":"188607140","MEAN_MOTION_DDOT":"0.0000000000000","EPOCH":"2021-10-31T20:22:15.468096","NORAD_CAT_ID":"46720","MEAN_ANOMALY":"307.7827","MEAN_MOTION_DOT":"0.00042003"},{"NORAD_CAT_ID":"46722","GP_ID":"188606395","EPOCH":"2021-10-31T19:25:07.946400","MEAN_MOTION_DDOT":"0.0000000000000","MEAN_ANOMALY":"283.3063","MEAN_MOTION_DOT":"-0.00000647","RA_OF_ASC_NODE":"193.8639","ECCENTRICITY":"0.00018300","ARG_OF_PERICENTER":"76.8130","TLE_LINE2":"2 46722  53.0541 193.8639 0001830  76.8130 283.3063 15.06396323 57282","APOAPSIS":"548.492","EPHEMERIS_TYPE":"0","COUNTRY_CODE":"US","CLASSIFICATION_TYPE":"U","OBJECT_TYPE":"PAYLOAD","MEAN_ELEMENT_THEORY":"SGP4","SITE":"AFETR","REV_AT_EPOCH":"5728","SEMIMAJOR_AXIS":"6925.360","RCS_SIZE":"LARGE","INCLINATION":"53.0541","PERIOD":"95.592","OBJECT_ID":"2020-073BE","PERIAPSIS":"545.957","DECAY_DATE":null,"BSTAR":"-0.00002451200000","REF_FRAME":"TEME","TLE_LINE1":"1 46722U 20073BE  21304.80911975 -.00000647  00000-0 -24512-4 0  9990","LAUNCH_DATE":"2020-10-18","TIME_SYSTEM":"UTC","OBJECT_NAME":"STARLINK-1825","CENTER_NAME":"EARTH","ELEMENT_SET_NO":"999","FILE":"3194950","MEAN_MOTION":"15.06396323"},{"BSTAR":"-0.00008432200000","PERIAPSIS":"546.020","DECAY_DATE":null,"PERIOD":"95.593","OBJECT_ID":"2020-073BF","RCS_SIZE":"LARGE","INCLINATION":"53.0543","SEMIMAJOR_AXIS":"6925.390","MEAN_MOTION":"15.06386470","FILE":"3194950","CENTER_NAME":"EARTH","ELEMENT_SET_NO":"999","TIME_SYSTEM":"UTC","OBJECT_NAME":"STARLINK-1826","LAUNCH_DATE":"2020-10-18","TLE_LINE1":"1 46723U 20073BF  21304.70223835 -.00001537  00000-0 -84322-4 0  9995","REF_FRAME":"TEME","ARG_OF_PERICENTER":"81.7385","TLE_LINE2":"2 46723  53.0543 154.3516 0001784  81.7385 278.3806 15.06386470 57838","ECCENTRICITY":"0.00017840","RA_OF_ASC_NODE":"154.3516","MEAN_ANOMALY":"278.3806","MEAN_MOTION_DOT":"-0.00001537","GP_ID":"188606645","MEAN_MOTION_DDOT":"0.0000000000000","EPOCH":"2021-10-31T16:51:13.393440","NORAD_CAT_ID":"46723","REV_AT_EPOCH":"5783","MEAN_ELEMENT_THEORY":"SGP4","SITE":"AFETR","OBJECT_TYPE":"PAYLOAD","CLASSIFICATION_TYPE":"U","COUNTRY_CODE":"US","EPHEMERIS_TYPE":"0","APOAPSIS":"548.491"},{"REV_AT_EPOCH":"5817","MEAN_ELEMENT_THEORY":"SGP4","SITE":"AFETR","OBJECT_TYPE":"PAYLOAD","CLASSIFICATION_TYPE":"U","COUNTRY_CODE":"US","EPHEMERIS_TYPE":"0","APOAPSIS":"297.809","TLE_LINE2":"2 46724  53.0496 125.1176 0001515 312.6822  47.4076 15.91960855 58179","ARG_OF_PERICENTER":"312.6822","ECCENTRICITY":"0.00015150","RA_OF_ASC_NODE":"125.1176","MEAN_MOTION_DOT":"0.00229890","MEAN_ANOMALY":"47.4076","MEAN_MOTION_DDOT":"0.0000308610000","EPOCH":"2021-10-30T22:14:03.422400","GP_ID":"188571500","NORAD_CAT_ID":"46724","MEAN_MOTION":"15.91960855","FILE":"3194431","CENTER_NAME":"EARTH","ELEMENT_SET_NO":"999","OBJECT_NAME":"STARLINK-1827","TIME_SYSTEM":"UTC","LAUNCH_DATE":"2020-10-18","TLE_LINE1":"1 46724U 20073BG  21303.92642850  .00229890  30861-4  68758-3 0  9999","REF_FRAME":"TEME","BSTAR":"0.00068758000000","DECAY_DATE":null,"PERIAPSIS":"295.787","OBJECT_ID":"2020-073BG","PERIOD":"90.454","INCLINATION":"53.0496","RCS_SIZE":"LARGE","SEMIMAJOR_AXIS":"6674.933"},{"EPHEMERIS_TYPE":"0","COUNTRY_CODE":"US","APOAPSIS":"548.423","CLASSIFICATION_TYPE":"U","SITE":"AFETR","MEAN_ELEMENT_THEORY":"SGP4","OBJECT_TYPE":"PAYLOAD","REV_AT_EPOCH":"5729","GP_ID":"188607641","MEAN_MOTION_DDOT":"0.0000000000000","EPOCH":"2021-10-31T20:07:35.275008","NORAD_CAT_ID":"46725","MEAN_ANOMALY":"281.9275","MEAN_MOTION_DOT":"0.00001325","ECCENTRICITY":"0.00017590","RA_OF_ASC_NODE":"193.7302","ARG_OF_PERICENTER":"78.1912","TLE_LINE2":"2 46725  53.0544 193.7302 0001759  78.1912 281.9275 15.06402845 57294","TLE_LINE1":"1 46725U 20073BH  21304.83860272  .00001325  00000-0  10785-3 0  9997","REF_FRAME":"TEME","LAUNCH_DATE":"2020-10-18","ELEMENT_SET_NO":"999","CENTER_NAME":"EARTH","TIME_SYSTEM":"UTC","OBJECT_NAME":"STARLINK-1828","MEAN_MOTION":"15.06402845","FILE":"3194950","RCS_SIZE":"LARGE","INCLINATION":"53.0544","SEMIMAJOR_AXIS":"6925.340","PERIOD":"95.592","OBJECT_ID":"2020-073BH","PERIAPSIS":"545.987","DECAY_DATE":null,"BSTAR":"0.00010785000000"},{"REF_FRAME":"TEME","TLE_LINE1":"1 46726U 20073BJ  21304.93028456  .00000039  00000-0  21662-4 0  9997","LAUNCH_DATE":"2020-10-18","OBJECT_NAME":"STARLINK-1829","TIME_SYSTEM":"UTC","ELEMENT_SET_NO":"999","CENTER_NAME":"EARTH","FILE":"3194950","MEAN_MOTION":"15.06401344","SEMIMAJOR_AXIS":"6925.344","INCLINATION":"53.0549","RCS_SIZE":"LARGE","OBJECT_ID":"2020-073BJ","PERIOD":"95.592","DECAY_DATE":null,"PERIAPSIS":"542.801","BSTAR":"0.00002166200000","APOAPSIS":"551.618","COUNTRY_CODE":"US","EPHEMERIS_TYPE":"0","CLASSIFICATION_TYPE":"U","OBJECT_TYPE":"PAYLOAD","MEAN_ELEMENT_THEORY":"SGP4","SITE":"AFETR","REV_AT_EPOCH":"5751","NORAD_CAT_ID":"46726","EPOCH":"2021-10-31T22:19:36.585984","MEAN_MOTION_DDOT":"0.0000000000000","GP_ID":"188605895","MEAN_MOTION_DOT":"0.00000039","MEAN_ANOMALY":"27.1300","RA_OF_ASC_NODE":"178.3248","ECCENTRICITY":"0.00063660","TLE_LINE2":"2 46726  53.0549 178.3248 0006366 332.9356  27.1300 15.06401344 57517","ARG_OF_PERICENTER":"332.9356"},{"ECCENTRICITY":"0.00017160","RA_OF_ASC_NODE":"153.5177","ARG_OF_PERICENTER":"79.0177","TLE_LINE2":"2 46727  53.0529 153.5177 0001716  79.0177 281.1005 15.06400010 57867","GP_ID":"188606145","MEAN_MOTION_DDOT":"0.0000000000000","EPOCH":"2021-10-31T21:16:35.824800","NORAD_CAT_ID":"46727","MEAN_ANOMALY":"281.1005","MEAN_MOTION_DOT":"0.00002543","MEAN_ELEMENT_THEORY":"SGP4","SITE":"AFETR","OBJECT_TYPE":"PAYLOAD","REV_AT_EPOCH":"5786","EPHEMERIS_TYPE":"0","COUNTRY_CODE":"US","APOAPSIS":"548.402","CLASSIFICATION_TYPE":"U","PERIAPSIS":"546.025","DECAY_DATE":null,"BSTAR":"0.00018954000000","RCS_SIZE":"LARGE","INCLINATION":"53.0529","SEMIMAJOR_AXIS":"6925.349","PERIOD":"95.592","OBJECT_ID":"2020-073BK","ELEMENT_SET_NO":"999","CENTER_NAME":"EARTH","TIME_SYSTEM":"UTC","OBJECT_NAME":"STARLINK-1830","MEAN_MOTION":"15.06400010","FILE":"3194950","TLE_LINE1":"1 46727U 20073BK  21304.88652575  .00002543  00000-0  18954-3 0  9998","REF_FRAME":"TEME","LAUNCH_DATE":"2020-10-18"},{"INCLINATION":"53.0502","RCS_SIZE":"LARGE","SEMIMAJOR_AXIS":"6776.015","OBJECT_ID":"2020-073BL","PERIOD":"92.517","DECAY_DATE":null,"PERIAPSIS":"397.364","BSTAR":"0.00160890000000","TLE_LINE1":"1 46728U 20073BL  21304.89127067  .00117178  00000-0  16089-2 0  9990","REF_FRAME":"TEME","LAUNCH_DATE":"2020-10-18","CENTER_NAME":"EARTH","ELEMENT_SET_NO":"999","OBJECT_NAME":"STARLINK-1831","TIME_SYSTEM":"UTC","MEAN_MOTION":"15.56471806","FILE":"3194950","MEAN_MOTION_DDOT":"0.0000000000000","EPOCH":"2021-10-31T21:23:25.785888","GP_ID":"188606897","NORAD_CAT_ID":"46728","MEAN_MOTION_DOT":"0.00117178","MEAN_ANOMALY":"355.4412","ECCENTRICITY":"0.00007610","RA_OF_ASC_NODE":"160.1428","TLE_LINE2":"2 46728  53.0502 160.1428 0000761   4.6606 355.4412 15.56471806 57764","ARG_OF_PERICENTER":"4.6606","COUNTRY_CODE":"US","EPHEMERIS_TYPE":"0","APOAPSIS":"398.395","CLASSIFICATION_TYPE":"U","SITE":"AFETR","MEAN_ELEMENT_THEORY":"SGP4","OBJECT_TYPE":"PAYLOAD","REV_AT_EPOCH":"5776"}];
